ARIANE 40 R/B           
1 20443U 90005H   25361.19402397  .00000340  00000+0  12187-3 0  9997
2 20443  98.3225  58.9623 0011120  66.6006 293.6351 14.39809163882377
DELTA 2 R/B(1)          
1 20453U 90008B   25361.15319750  .00053674  00000+0  82579-3 0  9997
2 20453  35.6070 287.3767 0109319 309.0505  50.0541 15.46448073914867
COSMOS 2058             
1 20465U 90010A   25360.80154846  .00005237  00000+0  31505-3 0  9992
2 20465  82.4707 119.2001 0009629 219.9612 140.0910 15.10609202931236
SL-14 R/B               
1 20466U 90010B   25361.17994501  .00000590  00000+0  68655-4 0  9998
2 20466  82.5024 335.4842 0019890 174.2387 185.9061 14.83485144917738
SL-14 R/B               
1 20511U 90018B   25361.06046478  .00000619  00000+0  74923-4 0  9993
2 20511  82.5220 290.9804 0015771 336.3115  23.7371 14.82061825911826
HST                     
1 20580U 90037B   25361.15970731  .00007191  00000+0  24604-3 0  9990
2 20580  28.4655 174.3242 0002523  42.5437 317.5354 15.28229286762207
SL-16 R/B               
1 20625U 90046B   25360.67232749 -.00000070  00000+0 -11521-4 0  9992
2 20625  70.9992  91.2626 0012328  49.3333 310.8859 14.14997355838067
COSMOS 2084             
1 20663U 90055A   25361.05207084  .00003148  00000+0  23232-3 0  9999
2 20663  62.7887 223.2232 0029410 176.6113 183.5192 15.05103000925385
SL-6 R/B(2)             
1 20666U 90055D   25361.13712980  .00003145  00000+0  24575-3 0  9995
2 20666  62.7828 140.4930 0014431 318.6332  41.3673 15.03144078927280
SL-8 R/B                
1 20775U 90078B   25361.13909006  .00017209  00000+0  53085-3 0  9992
2 20775  82.9058 316.4165 0369870 257.4032  98.5596 14.86445048798513
SL-8 R/B                
1 21088U 91006B   25361.14357155  .00000101  00000+0  86462-4 0  9994
2 21088  82.9412 223.9989 0021338 237.0301 237.0226 13.77492816754086
OKEAN-3                 
1 21397U 91039A   25361.18440147  .00003157  00000+0  22497-3 0  9992
2 21397  82.5161  47.0647 0013649 210.7043 149.3386 15.04207121854133
COSMOS 2151             
1 21422U 91042A   25361.16841904  .00003031  00000+0  24310-3 0  9996
2 21422  82.4967 153.5980 0011475 308.6481  51.3715 14.99743188852324
SL-14 R/B               
1 21423U 91042B   25361.16582882  .00000549  00000+0  66415-4 0  9998
2 21423  82.4937 288.1964 0018443 116.9080 243.4022 14.81752245842336
ERS-1                   
1 21574U 91050A   25361.05691999  .00000408  00000+0  14507-3 0  9990
2 21574  98.7901  12.4695 0032860  58.8705 301.5698 14.39376061805289
ARIANE 40 R/B           
1 21610U 91050F   25361.14177397  .00000399  00000+0  13221-3 0  9993
2 21610  98.2147  51.0513 0002039 305.2856  54.8143 14.42825066808538
INTERCOSMOS 25          
1 21819U 91086A   25361.00098226  .00002075  00000+0  41311-3 0  9995
2 21819  82.6082 353.9489 1486281 273.6405  69.6495 12.11785052487883
SL-8 R/B                
1 21876U 92008B   25361.13985235  .00000147  00000+0  13535-3 0  9997
2 21876  82.9275 321.7353 0034270 339.7007  30.5868 13.75962235699443
SL-8 R/B                
1 21938U 92020B   25361.10880263  .00000165  00000+0  15479-3 0  9991
2 21938  82.9289 207.6471 0029776 138.5658 335.5754 13.75531016691153
USA 81                  
1 21949U 92023A   25360.93609284  .00000247  00000+0  84181-4 0  9996
2 21949  85.0081 173.3885 0001087  92.3876 267.7441 14.32332231 84372
COSMOS 2219             
1 22219U 92076A   25360.94321838  .00000393  00000+0  23076-3 0  9999
2 22219  71.0582 170.1408 0019481 307.3173  52.6174 14.14069433708093
SL-16 R/B               
1 22220U 92076B   25361.19423360 -.00000033  00000+0  74129-5 0  9991
2 22220  71.0011 341.0829 0014078 214.8455 226.3789 14.16845862711568
COSMOS 2221             
1 22236U 92080A   25360.99984372  .00002681  00000+0  23732-3 0  9997
2 22236  82.5046 348.6751 0016335  78.3171 281.9883 14.95818475769925
SL-16 R/B               
1 22285U 92093B   25361.16094757 -.00000104  00000+0 -28914-4 0  9992
2 22285  71.0209 156.5229 0002643  27.0747 333.0513 14.15435342702898
COSMOS 2228             
1 22286U 92094A   25361.13050564  .00003200  00000+0  27651-3 0  9993
2 22286  82.5189 306.7649 0017735 180.4831 179.6377 14.96797059765205
SL-16 R/B               
1 22566U 93016B   25361.12347244  .00000221  00000+0  13817-3 0  9991
2 22566  71.0085   7.5929 0008044  68.8967 291.3015 14.15293913691900
COSMOS 2242             
1 22626U 93024A   25360.94824181  .00002967  00000+0  26060-3 0  9999
2 22626  82.5196 336.2631 0016082 183.7087 176.4019 14.96166233769513
SL-16 R/B               
1 22803U 93059B   25360.91910494  .00000300  00000+0  17230-3 0  9992
2 22803  70.9887 164.5852 0018665 315.6592  44.3036 14.17217124669229
ARIANE 40 R/B           
1 22830U 93061H   25361.14358078  .00000307  00000+0  12844-3 0  9998
2 22830  98.5057  66.4103 0011589 135.4888 224.7229 14.32811100683716
COSMOS 2278             
1 23087U 94023A   25361.17600968  .00000156  00000+0  10622-3 0  9997
2 23087  71.0535 326.8067 0007737 153.5254 206.6265 14.14349133634557
SL-16 R/B               
1 23088U 94023B   25361.04337163 -.00000190  00000+0 -73683-4 0  9995
2 23088  70.9974 223.4485 0002176   2.2377 357.8754 14.14999010635814
SL-16 R/B               
1 23343U 94074B   25361.07464176  .00000574  00000+0  83784-4 0  9990
2 23343  97.7189  29.8085 0008029  96.5914 283.3316 14.79305943676519
SL-16 R/B               
1 23405U 94077B   25360.69999859 -.00000217  00000+0 -86235-4 0  9990
2 23405  70.9822 146.0450 0005048 273.7923  86.2623 14.15551765605901
ARIANE 40+ R/B          
1 23561U 95021B   25361.19191877  .00000371  00000+0  13244-3 0  9991
2 23561  98.4633  68.6054 0006700   9.3366  49.3975 14.39706589608813
SL-16 R/B               
1 23705U 95058B   25361.19807032 -.00000065  00000+0 -88611-5 0  9992
2 23705  71.0217 332.4485 0014554 236.0432 123.9308 14.15481273557598
SL-16 R/B               
1 24298U 96051B   25361.14879895  .00000005  00000+0  29264-4 0  9995
2 24298  70.7596 328.7835 0019460 243.6993 116.2127 14.12397805511404
ORBVIEW 2 (SEASTAR)     
1 24883U 97037A   25360.99583306  .00000367  00000+0  14401-3 0  9998
2 24883  98.8463 158.4297 0001201 276.7200  83.3848 14.35427325498044
SL-16 R/B               
1 25400U 98043G   25360.76113064  .00000083  00000+0  53518-4 0  9995
2 25400  98.8146 308.6591 0009064 221.5634 138.4857 14.26028711428599
SL-16 R/B               
1 25407U 98045B   25361.17401588  .00000262  00000+0  15652-3 0  9996
2 25407  71.0123 334.0709 0006066 152.6013 207.5432 14.16179417416832
ISS (ZARYA)             
1 25544U 98067A   25361.17953132  .00014677  00000+0  26589-3 0  9995
2 25544  51.6319  70.9637 0003231 308.7757  51.2942 15.49865152545097
CZ-4B R/B               
1 25732U 99025C   25361.14244446  .00000066  00000+0  52857-4 0  9992
2 25732  98.6749  42.0990 0036952 192.0235 235.1359 14.18247171377882
OKEAN-O                 
1 25860U 99039A   25361.12092970  .00000853  00000+0  11915-3 0  9993
2 25860  97.9584  56.6970 0001174 114.8356 245.2978 14.80185996423657
SL-16 R/B               
1 25861U 99039B   25361.16975653  .00000737  00000+0  10050-3 0  9996
2 25861  98.0107  55.3207 0015887 129.6855 230.5762 14.81607476426120
DELTA 2 R/B             
1 25876U 99041E   25361.15850480  .00001563  00000+0  29067-3 0  9990
2 25876  51.7598 230.8867 0504404 134.2592 230.0902 14.11441091352789
HELIOS 1B               
1 25977U 99064A   25361.13335051  .00002724  00000+0  30810-3 0  9995
2 25977  98.1748 256.2263 0000846  31.6069 328.5197 14.87341162674478
TERRA                   
1 25994U 99068A   25361.11575992  .00000574  00000+0  12634-3 0  9991
2 25994  97.9729  52.2712 0003362  65.6472 347.2518 14.60918152384481
SL-16 R/B               
1 26070U 00006B   25361.09992626  .00000236  00000+0  14400-3 0  9993
2 26070  71.0011 250.4645 0018604 289.2328  70.6782 14.15809808338284
TITAN 4B R/B            
1 26474U 00047B   25361.06170431  .00004183  00000+0  26879-3 0  9993
2 26474  67.9887 244.6298 0037946 126.8957 233.5680 15.08884585381957
ENVISAT                 
1 27386U 02009A   25352.94754304  .00000081  00000+0  39999-4 0  9991
2 27386  98.3609 303.5309 0001126  84.8976 298.2993 14.39001403247569
IDEFIX & ARIANE 42P R/B 
1 27422U 02021B   25361.05736655  .00000380  00000+0  16109-3 0  9996
2 27422  98.5804 295.5636 0012699  44.9551 315.2658 14.30960824233638
AQUA                    
1 27424U 02022A   25360.99159257  .00001315  00000+0  27355-3 0  9992
2 27424  98.4058 322.1038 0001849  99.7002 302.1298 14.61764548258111
CZ-4B R/B               
1 27432U 02024C   25361.13863666  .00000050  00000+0  49045-4 0  9992
2 27432  98.8979  49.8588 0049440 228.2653 154.8220 14.14530842218983
MIDORI II (ADEOS-II)    
1 27597U 02056A   25361.13714626  .00000384  00000+0  16885-3 0  9995
2 27597  98.7656 314.1704 0000909 145.2788 214.8452 14.29215794199937
H-2A R/B                
1 27601U 02056E   25360.91940019  .00000495  00000+0  18809-3 0  9994
2 27601  98.3086 319.1130 0070797  19.3907  49.0746 14.33688828203689
CZ-4B R/B               
1 28059U 03049C   25360.96912154  .00000531  00000+0  13324-3 0  9997
2 28059  98.6799 348.0712 0049387  93.5315 267.1531 14.54923302176020
CZ-2C R/B               
1 28222U 04012C   25361.08009627  .00047921  00000+0  66836-3 0  9996
2 28222  97.7395  54.8950 0016670 214.7570 145.2597 15.56602786192950
SL-16 R/B               
1 28353U 04021B   25361.18850352  .00000245  00000+0  15228-3 0  9998
2 28353  71.0004  24.6435 0004499 175.6367 184.4795 14.14580852112583
CZ-4B R/B               
1 28415U 04035C   25361.10446418  .00010332  00000+0  37972-3 0  9996
2 28415  97.3598  31.2575 0031867 224.1058 135.7640 15.27607937168821
CZ-2C R/B               
1 28480U 04046B   25361.05292043  .00000352  00000+0  14583-3 0  9991
2 28480  98.1997 275.5419 0139786  10.1924 350.2041 14.26949649 98142
